{"type": "FeatureCollection", "features": [ {"type": "Feature", "properties": {"norad_id": 31805, "name": "FENGYUN 1C DEB", "group": "fengyun-1c-debris", "lat": 1.1364246446178132, "lon": -36.77323334064692, "alt_km": 1211.85943321563, "timestamp": "2025-12-04T13:52:00.726747+00:00", "meta": {"OBJECT_NAME": "FENGYUN 1C DEB", "OBJECT_ID": "1999-025CGT", "EPOCH": "2025-12-01T05:23:40.108128", "MEAN_MOTION": 14.02670631, "ECCENTRICITY": 0.0447098, "INCLINATION": 98.3662, "RA_OF_ASC_NODE": 320.3008, "ARG_OF_PERICENTER": 191.6465, "MEAN_ANOMALY": 167.4086, "EPHEMERIS_TYPE": 0, "CLASSIFICATION_TYPE": "U", "NORAD_CAT_ID": 31805, "ELEMENT_SET_NO": 999, "REV_AT_EPOCH": 62202, "BSTAR": 0.0013339, "MEAN_MOTION_DOT": 4.977e-05, "MEAN_MOTION_DDOT": 0}, "tle": {"line1": "1 31805U 99025CGT 25335.22476977  .00004977  00000+0  13339-2 0  9991", "line2": "2 31805  98.3662 320.3008 0447098 191.6465 167.4086 14.02670631622027"}}, "geometry": {"type": "Point", "coordinates": [-36.77323334064692, 1.1364246446178132]}}, {"type": "Feature", "properties": {"norad_id": 31807, "name": "FENGYUN 1C DEB", "group": "fengyun-1c-debris", "lat": -46.29810723246334, "lon": 118.49957763397992, "alt_km": 769.7069974790702, "timestamp": "2025-12-04T13:52:00.726758+00:00", "meta": {"OBJECT_NAME": "FENGYUN 1C DEB", "OBJECT_ID": "1999-025CGV", "EPOCH": "2025-12-04T02:30:33.983136", "MEAN_MOTION": 14.51918423, "ECCENTRICITY": 0.01055508, "INCLINATION": 99.0768, "RA_OF_ASC_NODE": 108.359, "ARG_OF_PERICENTER": 188.356, "MEAN_ANOMALY": 171.5879, "EPHEMERIS_TYPE": 0, "CLASSIFICATION_TYPE": "U", "NORAD_CAT_ID": 31807, "ELEMENT_SET_NO": 999, "REV_AT_EPOCH": 65180, "BSTAR": 0.0021745079, "MEAN_MOTION_DOT": 9.385e-05, "MEAN_MOTION_DDOT": 0}, "tle": {"line1": "1 31807U 99025CGV 25338.10455999  .00009385  00000+0  21745-2 0  9992", "line2": "2 31807  99.0768 108.3590 0105550 188.3560 171.5879 14.51918423651809"}}, "geometry": {"type": "Point", "coordinates": [118.49957763397992, -46.29810723246334]}}, {"type": "Feature", "properties": {"norad_id": 31808, "name": "FENGYUN 1C DEB", "group": "fengyun-1c-debris", "lat": -43.81408561446515, "lon": -24.24180727097329, "alt_km": 696.7101983128277, "timestamp": "2025-12-04T13:52:00.726767+00:00", "meta": {"OBJECT_NAME": "FENGYUN 1C DEB", "OBJECT_ID": "1999-025CGW", "EPOCH": "2025-12-03T07:09:51.542208", "MEAN_MOTION": 14.56458132, "ECCENTRICITY": 0.0037987, "INCLINATION": 99.2042, "RA_OF_ASC_NODE": 163.2972, "ARG_OF_PERICENTER": 170.223, "MEAN_ANOMALY": 189.9712, "EPHEMERIS_TYPE": 0, "CLASSIFICATION_TYPE": "U", "NORAD_CAT_ID": 31808, "ELEMENT_SET_NO": 999, "REV_AT_EPOCH": 57465, "BSTAR": 0.0070427, "MEAN_MOTION_DOT": 0.00031692, "MEAN_MOTION_DDOT": 0}, "tle": {"line1": "1 31808U 99025CGW 25337.29851322  .00031692  00000+0  70427-2 0  9999", "line2": "2 31808  99.2042 163.2972 0037987 170.2230 189.9712 14.56458132574650"}}, "geometry": {"type": "Point", "coordinates": [-24.24180727097329, -43.81408561446515]}}, {"type": "Feature", "properties": {"norad_id": 31810, "name": "FENGYUN 1C DEB", "group": "fengyun-1c-debris", "lat": 23.224066687188436, "lon": -9.414799773589392, "alt_km": 857.2064903636474, "timestamp": "2025-12-04T13:52:00.726778+00:00", "meta": {"OBJECT_NAME": "FENGYUN 1C DEB", "OBJECT_ID": "1999-025CGY", "EPOCH": "2025-12-02T18:34:02.794944", "MEAN_MOTION": 14.45755419, "ECCENTRICITY": 0.02141225, "INCLINATION": 98.2699, "RA_OF_ASC_NODE": 352.4032, "ARG_OF_PERICENTER": 170.6735, "MEAN_ANOMALY": 189.8534, "EPHEMERIS_TYPE": 0, "CLASSIFICATION_TYPE": "U", "NORAD_CAT_ID": 31810, "ELEMENT_SET_NO": 999, "REV_AT_EPOCH": 64270, "BSTAR": 0.00070820977, "MEAN_MOTION_DOT": 3.284e-05, "MEAN_MOTION_DDOT": 0}, "tle": {"line1": "1 31810U 99025CGY 25336.77364346  .00003284  00000+0  70821-3 0  9994", "line2": "2 31810  98.2699 352.4032 0214122 170.6735 189.8534 14.45755419642700"}}, "geometry": {"type": "Point", "coordinates": [-9.414799773589392, 23.224066687188436]}}, {"type": "Feature", "properties": {"norad_id": 31813, "name": "FENGYUN 1C DEB", "group": "fengyun-1c-debris", "lat": -10.2379664321617, "lon": -124.57568777353693, "alt_km": 825.488163897784, "timestamp": "2025-12-04T13:52:00.726788+00:00", "meta": {"OBJECT_NAME": "FENGYUN 1C DEB", "OBJECT_ID": "1999-025CHB", "EPOCH": "2025-12-03T00:32:58.175520", "MEAN_MOTION": 14.49726248, "ECCENTRICITY": 0.01366901, "INCLINATION": 99.4283, "RA_OF_ASC_NODE": 55.4063, "ARG_OF_PERICENTER": 2.4724, "MEAN_ANOMALY": 357.7113, "EPHEMERIS_TYPE": 0, "CLASSIFICATION_TYPE": "U", "NORAD_CAT_ID": 31813, "ELEMENT_SET_NO": 999, "REV_AT_EPOCH": 97115, "BSTAR": 0.00051301891, "MEAN_MOTION_DOT": 2.164e-05, "MEAN_MOTION_DDOT": 0}, "tle": {"line1": "1 31813U 99025CHB 25337.02289555  .00002164  00000+0  51302-3 0  9993", "line2": "2 31813  99.4283  55.4063 0136690   2.4724 357.7113 14.49726248971157"}}, "geometry": {"type": "Point", "coordinates": [-124.57568777353693, -10.2379664321617]}}, {"type": "Feature", "properties": {"norad_id": 31814, "name": "FENGYUN 1C DEB", "group": "fengyun-1c-debris", "lat": -70.20406248141114, "lon": 56.51587739870154, "alt_km": 910.5811806334714, "timestamp": "2025-12-04T13:52:00.726799+00:00", "meta": {"OBJECT_NAME": "FENGYUN 1C DEB", "OBJECT_ID": "1999-025CHC", "EPOCH": "2025-11-24T20:29:55.792608", "MEAN_MOTION": 13.66443116, "ECCENTRICITY": 0.0229144, "INCLINATION": 99.5736, "RA_OF_ASC_NODE": 18.9365, "ARG_OF_PERICENTER": 261.41, "MEAN_ANOMALY": 96.1022, "EPHEMERIS_TYPE": 0, "CLASSIFICATION_TYPE": "U", "NORAD_CAT_ID": 31814, "ELEMENT_SET_NO": 999, "REV_AT_EPOCH": 61555, "BSTAR": 0.00071428, "MEAN_MOTION_DOT": 6.63e-06, "MEAN_MOTION_DDOT": 0}, "tle": {"line1": "1 31814U 99025CHC 25328.85411797  .00000663  00000+0  71428-3 0  9993", "line2": "2 31814  99.5736  18.9365 0229144 261.4100  96.1022 13.66443116615553"}}, "geometry": {"type": "Point", "coordinates": [56.51587739870154, -70.20406248141114]}}, {"type": "Feature", "properties": {"norad_id": 31815, "name": "FENGYUN 1C DEB", "group": "fengyun-1c-debris", "lat": -77.88392434549527, "lon": 11.069836002561756, "alt_km": 891.3311328586342, "timestamp": "2025-12-04T13:52:00.726809+00:00", "meta": {"OBJECT_NAME": "FENGYUN 1C DEB", "OBJECT_ID": "1999-025CHD", "EPOCH": "2025-12-04T05:44:21.650208", "MEAN_MOTION": 14.10277939, "ECCENTRICITY": 0.00596065, "INCLINATION": 98.7675, "RA_OF_ASC_NODE": 324.7779, "ARG_OF_PERICENTER": 46.0343, "MEAN_ANOMALY": 314.5722, "EPHEMERIS_TYPE": 0, "CLASSIFICATION_TYPE": "U", "NORAD_CAT_ID": 31815, "ELEMENT_SET_NO": 999, "REV_AT_EPOCH": 95419, "BSTAR": 0.00011705746, "MEAN_MOTION_DOT": 1.68e-06, "MEAN_MOTION_DDOT": 0}, "tle": {"line1": "1 31815U 99025CHD 25338.23913947  .00000168  00000+0  11706-3 0  9994", "line2": "2 31815  98.7675 324.7779 0059606  46.0343 314.5722 14.10277939954192"}}, "geometry": {"type": "Point", "coordinates": [11.069836002561756, -77.88392434549527]}}, {"type": "Feature", "properties": {"norad_id": 31816, "name": "FENGYUN 1C DEB", "group": "fengyun-1c-debris", "lat": 24.84290718386749, "lon": 88.8799051411187, "alt_km": 990.2318514806338, "timestamp": "2025-12-04T13:52:00.726820+00:00", "meta": {"OBJECT_NAME": "FENGYUN 1C DEB", "OBJECT_ID": "1999-025CHE", "EPOCH": "2025-11-23T07:26:54.652128", "MEAN_MOTION": 13.94096492, "ECCENTRICITY": 0.01210461, "INCLINATION": 98.9829, "RA_OF_ASC_NODE": 82.1237, "ARG_OF_PERICENTER": 207.0018, "MEAN_ANOMALY": 180.5984, "EPHEMERIS_TYPE": 0, "CLASSIFICATION_TYPE": "U", "NORAD_CAT_ID": 31816, "ELEMENT_SET_NO": 999, "REV_AT_EPOCH": 93423, "BSTAR": 0.0012545957, "MEAN_MOTION_DOT": 1.723e-05, "MEAN_MOTION_DDOT": 0}, "tle": {"line1": "1 31816U 99025CHE 25327.31035477  .00001723  00000+0  12546-2 0  9995", "line2": "2 31816  98.9829  82.1237 0121046 207.0018 180.5984 13.94096492934234"}}, "geometry": {"type": "Point", "coordinates": [88.8799051411187, 24.84290718386749]}}, {"type": "Feature", "properties": {"norad_id": 31817, "name": "FENGYUN 1C DEB", "group": "fengyun-1c-debris", "lat": -41.436395545448725, "lon": -17.78528728501755, "alt_km": 717.0553232723905, "timestamp": "2025-12-04T13:52:00.726830+00:00", "meta": {"OBJECT_NAME": "FENGYUN 1C DEB", "OBJECT_ID": "1999-025CHF", "EPOCH": "2025-12-04T05:51:59.275584", "MEAN_MOTION": 14.65485668, "ECCENTRICITY": 0.00629284, "INCLINATION": 98.9183, "RA_OF_ASC_NODE": 333.8855, "ARG_OF_PERICENTER": 101.357, "MEAN_ANOMALY": 259.4709, "EPHEMERIS_TYPE": 0, "CLASSIFICATION_TYPE": "U", "NORAD_CAT_ID": 31817, "ELEMENT_SET_NO": 999, "REV_AT_EPOCH": 71281, "BSTAR": 0.0028955613, "MEAN_MOTION_DOT": 0.00016126, "MEAN_MOTION_DDOT": 0}, "tle": {"line1": "1 31817U 99025CHF 25338.24443606  .00016126  00000+0  28956-2 0  9992", "line2": "2 31817  98.9183 333.8855 0062928 101.3570 259.4709 14.65485668712817"}}, "geometry": {"type": "Point", "coordinates": [-17.78528728501755, -41.436395545448725]}}, {"type": "Feature", "properties": {"norad_id": 31819, "name": "FENGYUN 1C DEB", "group": "fengyun-1c-debris", "lat": -21.758819127424058, "lon": 146.68824887644848, "alt_km": 846.3478557829867, "timestamp": "2025-12-04T13:52:00.726839+00:00", "meta": {"OBJECT_NAME": "FENGYUN 1C DEB", "OBJECT_ID": "1999-025CHH", "EPOCH": "2025-12-01T19:26:11.468544", "MEAN_MOTION": 14.30134028, "ECCENTRICITY": 0.00875682, "INCLINATION": 98.4736, "RA_OF_ASC_NODE": 327.4043, "ARG_OF_PERICENTER": 352.8381, "MEAN_ANOMALY": 7.1544, "EPHEMERIS_TYPE": 0, "CLASSIFICATION_TYPE": "U", "NORAD_CAT_ID": 31819, "ELEMENT_SET_NO": 999, "REV_AT_EPOCH": 96537, "BSTAR": 0.00045097789, "MEAN_MOTION_DOT": 1.173e-05, "MEAN_MOTION_DDOT": 0}, "tle": {"line1": "1 31819U 99025CHH 25335.80985496  .00001173  00000+0  45098-3 0  9994", "line2": "2 31819  98.4736 327.4043 0087568 352.8381   7.1544 14.30134028965375"}}, "geometry": {"type": "Point", "coordinates": [146.68824887644848, -21.758819127424058]}}]}